GLOBALSTAR M057         
1 25943U 99058A   24242.28661900 -.00000028  00000+0  58631-3 0  9996
2 25943  51.9972  96.5956 0002839 117.8247 242.2891 12.24793096131163
GLOBALSTAR M059         
1 25944U 99058B   24242.39364708 -.00000066  00000+0  24732-3 0  9992
2 25944  52.0001 276.5631 0000455 109.1809 354.7385 11.99964650539019
GLOBALSTAR M056         
1 25945U 99058C   24242.37539199 -.00000067  00000+0  23632-3 0  9998
2 25945  51.9959 286.0644 0000531 307.4992  65.8243 12.04776792127450
GLOBALSTAR M031         
1 25946U 99058D   24242.63712589  .00000026  00000+0  11860-2 0  9997
2 25946  51.9945 195.1275 0001526 320.7843 210.6205 12.16014515129073
GLOBALSTAR M039         
1 25961U 99062A   24242.22494265 -.00000053  00000+0  28258-3 0  9993
2 25961  51.9843  77.9589 0003574  65.4277 294.6962 12.62301301143342
GLOBALSTAR M034         
1 25962U 99062B   24242.18659216 -.00000041  00000+0  63371-3 0  9990
2 25962  51.9881  50.4098 0013488 206.9975 324.7806 11.79431559103937
GLOBALSTAR M029         
1 25963U 99062C   24242.96056035 -.00000085  00000+0  12113-4 0  9994
2 25963  51.9796 163.3129 0002212 275.8561 163.9055 11.99882576134216
